start=new Date('2022-04-02T00:00:00.000Z').valueOf();
sats=[{"MEAN_MOTION_DOT":"0.00003483","PERIAPSIS":"545.953","REV_AT_EPOCH":"8788","RA_OF_ASC_NODE":"331.1415","EPOCH":"2022-04-01T21:30:57.422016","ARG_OF_PERICENTER":"53.2988","ECCENTRICITY":"0.00017680","EPHEMERIS_TYPE":"0","MEAN_MOTION_DDOT":"0.0000000000000","SITE":"AFETR","OBJECT_NAME":"STARLINK-1670","GP_ID":"200263037","REF_FRAME":"TEME","APOAPSIS":"548.402","ELEMENT_SET_NO":"999","RCS_SIZE":"LARGE","DECAY_DATE":null,"PERIOD":"95.591","FILE":"3383778","OBJECT_TYPE":"PAYLOAD","NORAD_CAT_ID":"46370","OBJECT_ID":"2020-062AX","BSTAR":"0.00025256000000","COUNTRY_CODE":"US","MEAN_ELEMENT_THEORY":"SGP4","INCLINATION":"53.0542","CLASSIFICATION_TYPE":"U","MEAN_ANOMALY":"306.8163","SEMIMAJOR_AXIS":"6925.313","TLE_LINE2":"2 46370  53.0542 331.1415 0001768  53.2988 306.8163 15.06411753 87887","TLE_LINE1":"1 46370U 20062AX  22091.89649794  .00003483  00000-0  25256-3 0  9991","LAUNCH_DATE":"2020-09-03","TIME_SYSTEM":"UTC","CENTER_NAME":"EARTH","MEAN_MOTION":"15.06411753"},{"REF_FRAME":"TEME","APOAPSIS":"548.396","DECAY_DATE":null,"RCS_SIZE":"LARGE","ELEMENT_SET_NO":"999","PERIAPSIS":"545.962","MEAN_MOTION_DOT":"0.00001375","ECCENTRICITY":"0.00017570","EPHEMERIS_TYPE":"0","ARG_OF_PERICENTER":"62.5779","EPOCH":"2022-04-01T21:20:20.206464","RA_OF_ASC_NODE":"331.1465","REV_AT_EPOCH":"8788","SITE":"AFETR","MEAN_MOTION_DDOT":"0.0000000000000","GP_ID":"200262034","OBJECT_NAME":"STARLINK-1688","MEAN_ANOMALY":"297.5388","CLASSIFICATION_TYPE":"U","SEMIMAJOR_AXIS":"6925.314","TLE_LINE2":"2 46371  53.0551 331.1465 0001757  62.5779 297.5388 15.06411346 87885","MEAN_MOTION":"15.06411346","CENTER_NAME":"EARTH","TIME_SYSTEM":"UTC","LAUNCH_DATE":"2020-09-03","TLE_LINE1":"1 46371U 20062AY  22091.88912276  .00001375  00000-0  11118-3 0  9999","OBJECT_TYPE":"PAYLOAD","FILE":"3383778","PERIOD":"95.591","NORAD_CAT_ID":"46371","OBJECT_ID":"2020-062AY","MEAN_ELEMENT_THEORY":"SGP4","BSTAR":"0.00011118000000","COUNTRY_CODE":"US","INCLINATION":"53.0551"},{"INCLINATION":"53.0546","BSTAR":"0.00025257000000","COUNTRY_CODE":"US","MEAN_ELEMENT_THEORY":"SGP4","NORAD_CAT_ID":"46372","OBJECT_ID":"2020-062AZ","PERIOD":"95.591","OBJECT_TYPE":"PAYLOAD","FILE":"3383778","LAUNCH_DATE":"2020-09-03","TLE_LINE1":"1 46372U 20062AZ  22091.89833383  .00003484  00000-0  25257-3 0  9994","MEAN_MOTION":"15.06416990","CENTER_NAME":"EARTH","TIME_SYSTEM":"UTC","TLE_LINE2":"2 46372  53.0546 351.1058 0001594  53.8556 306.2580 15.06416990 87607","SEMIMAJOR_AXIS":"6925.296","CLASSIFICATION_TYPE":"U","MEAN_ANOMALY":"306.2580","GP_ID":"200264039","OBJECT_NAME":"STARLINK-1689","MEAN_MOTION_DDOT":"0.0000000000000","SITE":"AFETR","EPOCH":"2022-04-01T21:33:36.042912","RA_OF_ASC_NODE":"351.1058","REV_AT_EPOCH":"8760","ECCENTRICITY":"0.00015940","EPHEMERIS_TYPE":"0","ARG_OF_PERICENTER":"53.8556","PERIAPSIS":"546.058","MEAN_MOTION_DOT":"0.00003484","RCS_SIZE":"LARGE","ELEMENT_SET_NO":"999","DECAY_DATE":null,"APOAPSIS":"548.265","REF_FRAME":"TEME"},{"MEAN_ELEMENT_THEORY":"SGP4","COUNTRY_CODE":"US","BSTAR":"0.00035480000000","INCLINATION":"53.0534","OBJECT_TYPE":"PAYLOAD","FILE":"3383778","PERIOD":"95.592","NORAD_CAT_ID":"46374","OBJECT_ID":"2020-062BB","TLE_LINE2":"2 46374  53.0534 281.3603 0001294  97.2007 262.9129 15.06408471 88575","MEAN_MOTION":"15.06408471","CENTER_NAME":"EARTH","TIME_SYSTEM":"UTC","LAUNCH_DATE":"2020-09-03","TLE_LINE1":"1 46374U 20062BB  22091.84582426  .00005008  00000-0  35480-3 0  9993","MEAN_ANOMALY":"262.9129","CLASSIFICATION_TYPE":"U","SEMIMAJOR_AXIS":"6925.323","SITE":"AFETR","MEAN_MOTION_DDOT":"0.0000000000000","OBJECT_NAME":"STARLINK-1711","GP_ID":"200263029","PERIAPSIS":"546.291","MEAN_MOTION_DOT":"0.00005008","EPHEMERIS_TYPE":"0","ECCENTRICITY":"0.00012940","ARG_OF_PERICENTER":"97.2007","EPOCH":"2022-04-01T20:17:59.216064","RA_OF_ASC_NODE":"281.3603","REV_AT_EPOCH":"8857","DECAY_DATE":null,"RCS_SIZE":"LARGE","ELEMENT_SET_NO":"999","REF_FRAME":"TEME","APOAPSIS":"548.084"},{"TLE_LINE1":"1 46375U 20062BC  22091.86010346  .00003322  00000-0  24177-3 0  9991","LAUNCH_DATE":"2020-09-03","TIME_SYSTEM":"UTC","MEAN_MOTION":"15.06408790","CENTER_NAME":"EARTH","TLE_LINE2":"2 46375  53.0549 306.2774 0001725  52.4406 307.6740 15.06408790 88225","SEMIMAJOR_AXIS":"6925.322","CLASSIFICATION_TYPE":"U","MEAN_ANOMALY":"307.6740","INCLINATION":"53.0549","COUNTRY_CODE":"US","BSTAR":"0.00024177000000","MEAN_ELEMENT_THEORY":"SGP4","OBJECT_ID":"2020-062BC","NORAD_CAT_ID":"46375","PERIOD":"95.592","FILE":"3383778","OBJECT_TYPE":"PAYLOAD","ELEMENT_SET_NO":"999","RCS_SIZE":"LARGE","DECAY_DATE":null,"APOAPSIS":"548.381","REF_FRAME":"TEME","OBJECT_NAME":"STARLINK-1724","GP_ID":"200262537","MEAN_MOTION_DDOT":"0.0000000000000","SITE":"AFETR","REV_AT_EPOCH":"8822","EPOCH":"2022-04-01T20:38:32.938944","RA_OF_ASC_NODE":"306.2774","ARG_OF_PERICENTER":"52.4406","EPHEMERIS_TYPE":"0","ECCENTRICITY":"0.00017250","MEAN_MOTION_DOT":"0.00003322","PERIAPSIS":"545.992"},{"SITE":"AFETR","MEAN_MOTION_DDOT":"0.0000000000000","OBJECT_NAME":"STARLINK-1742","GP_ID":"200261534","PERIAPSIS":"546.099","MEAN_MOTION_DOT":"0.00003946","ECCENTRICITY":"0.00015510","EPHEMERIS_TYPE":"0","ARG_OF_PERICENTER":"57.4540","RA_OF_ASC_NODE":"306.2221","EPOCH":"2022-04-01T20:59:46.331520","REV_AT_EPOCH":"8822","DECAY_DATE":null,"RCS_SIZE":"LARGE","ELEMENT_SET_NO":"999","REF_FRAME":"TEME","APOAPSIS":"548.248","MEAN_ELEMENT_THEORY":"SGP4","COUNTRY_CODE":"US","BSTAR":"0.00028356000000","INCLINATION":"53.0549","OBJECT_TYPE":"PAYLOAD","FILE":"3383778","PERIOD":"95.591","NORAD_CAT_ID":"46376","OBJECT_ID":"2020-062BD","TLE_LINE2":"2 46376  53.0549 306.2221 0001551  57.4540 302.6598 15.06413068 88224","MEAN_MOTION":"15.06413068","CENTER_NAME":"EARTH","TIME_SYSTEM":"UTC","LAUNCH_DATE":"2020-09-03","TLE_LINE1":"1 46376U 20062BD  22091.87484180  .00003946  00000-0  28356-3 0  9999","MEAN_ANOMALY":"302.6598","CLASSIFICATION_TYPE":"U","SEMIMAJOR_AXIS":"6925.309"},{"ELEMENT_SET_NO":"999","RCS_SIZE":"LARGE","DECAY_DATE":null,"APOAPSIS":"548.329","REF_FRAME":"TEME","GP_ID":"200263539","OBJECT_NAME":"STARLINK-1758","MEAN_MOTION_DDOT":"0.0000000000000","SITE":"AFETR","REV_AT_EPOCH":"8787","RA_OF_ASC_NODE":"331.3728","EPOCH":"2022-04-01T20:11:20.255424","ARG_OF_PERICENTER":"62.0532","EPHEMERIS_TYPE":"0","ECCENTRICITY":"0.00016850","PERIAPSIS":"545.995","MEAN_MOTION_DOT":"0.00004041","TLE_LINE1":"1 46380U 20062BH  22091.84120666  .00004041  00000-0  28987-3 0  9994","LAUNCH_DATE":"2020-09-03","TIME_SYSTEM":"UTC","MEAN_MOTION":"15.06416698","CENTER_NAME":"EARTH","TLE_LINE2":"2 46380  53.0556 331.3728 0001685  62.0532 298.0628 15.06416698 87873","SEMIMAJOR_AXIS":"6925.297","CLASSIFICATION_TYPE":"U","MEAN_ANOMALY":"298.0628","INCLINATION":"53.0556","BSTAR":"0.00028987000000","COUNTRY_CODE":"US","MEAN_ELEMENT_THEORY":"SGP4","NORAD_CAT_ID":"46380","OBJECT_ID":"2020-062BH","PERIOD":"95.591","FILE":"3383778","OBJECT_TYPE":"PAYLOAD"},{"PERIOD":"95.591","FILE":"3383778","OBJECT_TYPE":"PAYLOAD","NORAD_CAT_ID":"46382","OBJECT_ID":"2020-062BK","COUNTRY_CODE":"US","BSTAR":"0.00013452000000","MEAN_ELEMENT_THEORY":"SGP4","INCLINATION":"53.0547","CLASSIFICATION_TYPE":"U","MEAN_ANOMALY":"300.4074","SEMIMAJOR_AXIS":"6925.303","TLE_LINE2":"2 46382  53.0547 306.1682 0001675  59.7081 300.4074 15.06414724 88237","TLE_LINE1":"1 46382U 20062BK  22091.88958749  .00001723  00000-0  13452-3 0  9996","LAUNCH_DATE":"2020-09-03","TIME_SYSTEM":"UTC","MEAN_MOTION":"15.06414724","CENTER_NAME":"EARTH","MEAN_MOTION_DOT":"0.00001723","PERIAPSIS":"546.008","REV_AT_EPOCH":"8823","RA_OF_ASC_NODE":"306.1682","EPOCH":"2022-04-01T21:21:00.359136","ARG_OF_PERICENTER":"59.7081","ECCENTRICITY":"0.00016750","EPHEMERIS_TYPE":"0","MEAN_MOTION_DDOT":"0.0000000000000","SITE":"AFETR","GP_ID":"200262529","OBJECT_NAME":"STARLINK-1769","REF_FRAME":"TEME","APOAPSIS":"548.328","ELEMENT_SET_NO":"999","RCS_SIZE":"LARGE","DECAY_DATE":null},{"GP_ID":"200263038","OBJECT_NAME":"STARLINK-1770","SITE":"AFETR","MEAN_MOTION_DDOT":"0.0000000000000","ARG_OF_PERICENTER":"71.1802","EPHEMERIS_TYPE":"0","ECCENTRICITY":"0.00014440","REV_AT_EPOCH":"8759","RA_OF_ASC_NODE":"351.2197","EPOCH":"2022-04-01T21:01:45.053760","PERIAPSIS":"546.169","MEAN_MOTION_DOT":"0.00003875","DECAY_DATE":null,"ELEMENT_SET_NO":"999","RCS_SIZE":"LARGE","APOAPSIS":"548.169","REF_FRAME":"TEME","INCLINATION":"53.0562","MEAN_ELEMENT_THEORY":"SGP4","BSTAR":"0.00027876000000","COUNTRY_CODE":"US","NORAD_CAT_ID":"46383","OBJECT_ID":"2020-062BL","FILE":"3383778","OBJECT_TYPE":"PAYLOAD","PERIOD":"95.591","TIME_SYSTEM":"UTC","MEAN_MOTION":"15.06414383","CENTER_NAME":"EARTH","TLE_LINE1":"1 46383U 20062BL  22091.87621590  .00003875  00000-0  27876-3 0  9992","LAUNCH_DATE":"2020-09-03","TLE_LINE2":"2 46383  53.0562 351.2197 0001444  71.1802 288.9343 15.06414383 87598","SEMIMAJOR_AXIS":"6925.304","MEAN_ANOMALY":"288.9343","CLASSIFICATION_TYPE":"U"},{"TLE_LINE2":"2 46384  53.0585 351.2014 0001397  70.7537 289.3603 15.06403729 87595","MEAN_MOTION":"15.06403729","CENTER_NAME":"EARTH","TIME_SYSTEM":"UTC","LAUNCH_DATE":"2020-09-03","TLE_LINE1":"1 46384U 20062BM  22091.87990843  .00000861  00000-0  76649-4 0  9998","MEAN_ANOMALY":"289.3603","CLASSIFICATION_TYPE":"U","SEMIMAJOR_AXIS":"6925.337","MEAN_ELEMENT_THEORY":"SGP4","COUNTRY_CODE":"US","BSTAR":"0.00007664900000","INCLINATION":"53.0585","OBJECT_TYPE":"PAYLOAD","FILE":"3383778","PERIOD":"95.592","OBJECT_ID":"2020-062BM","NORAD_CAT_ID":"46384","DECAY_DATE":null,"RCS_SIZE":"LARGE","ELEMENT_SET_NO":"999","REF_FRAME":"TEME","APOAPSIS":"548.170","SITE":"AFETR","MEAN_MOTION_DDOT":"0.0000000000000","OBJECT_NAME":"STARLINK-1771","GP_ID":"200262787","MEAN_MOTION_DOT":"0.00000861","PERIAPSIS":"546.235","ECCENTRICITY":"0.00013970","EPHEMERIS_TYPE":"0","ARG_OF_PERICENTER":"70.7537","EPOCH":"2022-04-01T21:07:04.088352","RA_OF_ASC_NODE":"351.2014","REV_AT_EPOCH":"8759"}];
